{
  "type": "FeatureCollection",
  "features": [
    {
      "type": "Feature",
      "properties": {
        "norad_id": 33886,
        "name": "IRIDIUM 33 DEB",
        "group": "iridium-33-debris",
        "lat": -68.05093378411303,
        "lon": 58.53196124861718,
        "alt_km": 772.8997504210656,
        "timestamp": "2025-12-11T22:43:47.654479+00:00",
        "meta_object_name": "IRIDIUM 33 DEB",
        "meta_object_id": "1997-051BF",
        "meta_epoch": "2025-12-11T11:23:31.797312",
        "meta_mean_motion": 14.36050155,
        "meta_eccentricity": 0.00122283,
        "meta_inclination": 86.383,
        "meta_ra_of_asc_node": 67.7612,
        "meta_arg_of_pericenter": 246.7656,
        "meta_mean_anomaly": 124.1555,
        "meta_ephemeris_type": 0,
        "meta_classification_type": "U",
        "meta_norad_cat_id": 33886,
        "meta_element_set_no": 999,
        "meta_rev_at_epoch": 88034,
        "meta_bstar": 0.00033597727,
        "meta_mean_motion_dot": 9.97e-06,
        "meta_mean_motion_ddot": 0,
        "tle_line1": "1 33886U 97051BF  25345.47467358  .00000997  00000+0  33598-3 0  9998",
        "tle_line2": "2 33886  86.3830  67.7612 0012228 246.7656 124.1555 14.36050155880344"
      },
      "geometry": {
        "type": "Point",
        "coordinates": [
          58.53196124861718,
          -68.05093378411303
        ]
      }
    },
    {
      "type": "Feature",
      "properties": {
        "norad_id": 33887,
        "name": "IRIDIUM 33 DEB",
        "group": "iridium-33-debris",
        "lat": -44.49779216000003,
        "lon": -172.62477753745728,
        "alt_km": 771.4266824723636,
        "timestamp": "2025-12-11T22:43:47.654492+00:00",
        "meta_object_name": "IRIDIUM 33 DEB",
        "meta_object_id": "1997-051BG",
        "meta_epoch": "2025-12-11T01:55:48.688896",
        "meta_mean_motion": 14.37218579,
        "meta_eccentricity": 0.0004312,
        "meta_inclination": 86.3045,
        "meta_ra_of_asc_node": 4.1074,
        "meta_arg_of_pericenter": 234.0797,
        "meta_mean_anomaly": 189.2272,
        "meta_ephemeris_type": 0,
        "meta_classification_type": "U",
        "meta_norad_cat_id": 33887,
        "meta_element_set_no": 999,
        "meta_rev_at_epoch": 88141,
        "meta_bstar": 0.00021085031,
        "meta_mean_motion_dot": 6.47e-06,
        "meta_mean_motion_ddot": 0,
        "tle_line1": "1 33887U 97051BG  25345.08042464  .00000647  00000+0  21085-3 0  9993",
        "tle_line2": "2 33887  86.3045   4.1074 0004312 234.0797 189.2272 14.37218579881415"
      },
      "geometry": {
        "type": "Point",
        "coordinates": [
          -172.62477753745728,
          -44.49779216000003
        ]
      }
    },
    {
      "type": "Feature",
      "properties": {
        "norad_id": 33953,
        "name": "IRIDIUM 33 DEB",
        "group": "iridium-33-debris",
        "lat": 28.10427068981519,
        "lon": 56.05829532506625,
        "alt_km": 704.2049751643144,
        "timestamp": "2025-12-11T22:43:47.654503+00:00",
        "meta_object_name": "IRIDIUM 33 DEB",
        "meta_object_id": "1997-051BN",
        "meta_epoch": "2025-12-11T11:07:41.316960",
        "meta_mean_motion": 14.55307463,
        "meta_eccentricity": 0.00184119,
        "meta_inclination": 86.3843,
        "meta_ra_of_asc_node": 54.3329,
        "meta_arg_of_pericenter": 106.7147,
        "meta_mean_anomaly": 270.7615,
        "meta_ephemeris_type": 0,
        "meta_classification_type": "U",
        "meta_norad_cat_id": 33953,
        "meta_element_set_no": 999,
        "meta_rev_at_epoch": 88285,
        "meta_bstar": 0.0022887036,
        "meta_mean_motion_dot": 9.967e-05,
        "meta_mean_motion_ddot": 0,
        "tle_line1": "1 33953U 97051BN  25345.46367265  .00009967  00000+0  22887-2 0  9992",
        "tle_line2": "2 33953  86.3843  54.3329 0018411 106.7147 270.7615 14.55307463882851"
      },
      "geometry": {
        "type": "Point",
        "coordinates": [
          56.05829532506625,
          28.10427068981519
        ]
      }
    },
    {
      "type": "Feature",
      "properties": {
        "norad_id": 33960,
        "name": "IRIDIUM 33 DEB",
        "group": "iridium-33-debris",
        "lat": 71.87528578744049,
        "lon": 98.33917388130915,
        "alt_km": 602.6386223610998,
        "timestamp": "2025-12-11T22:43:47.654514+00:00",
        "meta_object_name": "IRIDIUM 33 DEB",
        "meta_object_id": "1997-051BV",
        "meta_epoch": "2025-12-11T14:56:53.632608",
        "meta_mean_motion": 14.85098404,
        "meta_eccentricity": 0.00074782,
        "meta_inclination": 86.2531,
        "meta_ra_of_asc_node": 290.0411,
        "meta_arg_of_pericenter": 64.1065,
        "meta_mean_anomaly": 111.1917,
        "meta_ephemeris_type": 0,
        "meta_classification_type": "U",
        "meta_norad_cat_id": 33960,
        "meta_element_set_no": 999,
        "meta_rev_at_epoch": 88850,
        "meta_bstar": 0.0051621197,
        "meta_mean_motion_dot": 0.00044397,
        "meta_mean_motion_ddot": 0,
        "tle_line1": "1 33960U 97051BV  25345.62284297  .00044397  00000+0  51621-2 0  9995",
        "tle_line2": "2 33960  86.2531 290.0411 0007478  64.1065 111.1917 14.85098404888506"
      },
      "geometry": {
        "type": "Point",
        "coordinates": [
          98.33917388130915,
          71.87528578744049
        ]
      }
    },
    {
      "type": "Feature",
      "properties": {
        "norad_id": 33966,
        "name": "IRIDIUM 33 DEB",
        "group": "iridium-33-debris",
        "lat": 9.069914696477424,
        "lon": -134.2097543589348,
        "alt_km": 723.9526434791451,
        "timestamp": "2025-12-11T22:43:47.654524+00:00",
        "meta_object_name": "IRIDIUM 33 DEB",
        "meta_object_id": "1997-051CB",
        "meta_epoch": "2025-12-11T14:16:19.034400",
        "meta_mean_motion": 14.49586801,
        "meta_eccentricity": 0.00072721,
        "meta_inclination": 86.3923,
        "meta_ra_of_asc_node": 46.5185,
        "meta_arg_of_pericenter": 192.0381,
        "meta_mean_anomaly": 300.8829,
        "meta_ephemeris_type": 0,
        "meta_classification_type": "U",
        "meta_norad_cat_id": 33966,
        "meta_element_set_no": 999,
        "meta_rev_at_epoch": 88425,
        "meta_bstar": 0.00085094267,
        "meta_mean_motion_dot": 3.286e-05,
        "meta_mean_motion_ddot": 0,
        "tle_line1": "1 33966U 97051CB  25345.59466475  .00003286  00000+0  85094-3 0  9991",
        "tle_line2": "2 33966  86.3923  46.5185 0007272 192.0381 300.8829 14.49586801884254"
      },
      "geometry": {
        "type": "Point",
        "coordinates": [
          -134.2097543589348,
          9.069914696477424
        ]
      }
    },
    {
      "type": "Feature",
      "properties": {
        "norad_id": 34071,
        "name": "IRIDIUM 33 DEB",
        "group": "iridium-33-debris",
        "lat": -57.55338629984814,
        "lon": -156.05830300426445,
        "alt_km": 738.9484272999525,
        "timestamp": "2025-12-11T22:43:47.654535+00:00",
        "meta_object_name": "IRIDIUM 33 DEB",
        "meta_object_id": "1997-051CE",
        "meta_epoch": "2025-12-11T11:41:47.097024",
        "meta_mean_motion": 14.49457141,
        "meta_eccentricity": 0.00099283,
        "meta_inclination": 86.3459,
        "meta_ra_of_asc_node": 18.3725,
        "meta_arg_of_pericenter": 111.0549,
        "meta_mean_anomaly": 249.1718,
        "meta_ephemeris_type": 0,
        "meta_classification_type": "U",
        "meta_norad_cat_id": 34071,
        "meta_element_set_no": 999,
        "meta_rev_at_epoch": 88316,
        "meta_bstar": 0.001052324,
        "meta_mean_motion_dot": 4.049e-05,
        "meta_mean_motion_ddot": 0,
        "tle_line1": "1 34071U 97051CE  25345.48735066  .00004049  00000+0  10523-2 0  9994",
        "tle_line2": "2 34071  86.3459  18.3725 0009928 111.0549 249.1718 14.49457141883165"
      },
      "geometry": {
        "type": "Point",
        "coordinates": [
          -156.05830300426445,
          -57.55338629984814
        ]
      }
    },
    {
      "type": "Feature",
      "properties": {
        "norad_id": 34077,
        "name": "IRIDIUM 33 DEB",
        "group": "iridium-33-debris",
        "lat": 35.99344989203222,
        "lon": 54.487669501674006,
        "alt_km": 667.951664723616,
        "timestamp": "2025-12-11T22:43:47.654545+00:00",
        "meta_object_name": "IRIDIUM 33 DEB",
        "meta_object_id": "1997-051CL",
        "meta_epoch": "2025-12-11T06:28:42.934368",
        "meta_mean_motion": 14.64809818,
        "meta_eccentricity": 0.00103779,
        "meta_inclination": 86.386,
        "meta_ra_of_asc_node": 52.1546,
        "meta_arg_of_pericenter": 44.2381,
        "meta_mean_anomaly": 23.4753,
        "meta_ephemeris_type": 0,
        "meta_classification_type": "U",
        "meta_norad_cat_id": 34077,
        "meta_element_set_no": 999,
        "meta_rev_at_epoch": 88311,
        "meta_bstar": 0.0029385818,
        "meta_mean_motion_dot": 0.00015729,
        "meta_mean_motion_ddot": 0,
        "tle_line1": "1 34077U 97051CL  25345.26994137  .00015729  00000+0  29386-2 0  9996",
        "tle_line2": "2 34077  86.3860  52.1546 0010377  44.2381  23.4753 14.64809818883111"
      },
      "geometry": {
        "type": "Point",
        "coordinates": [
          54.487669501674006,
          35.99344989203222
        ]
      }
    }
  ]
}